[{"OBJECT_NAME":"STARLINK-5032","OBJECT_ID":"2022-119K","EPOCH":"2026-03-09T22:34:22.068480","MEAN_MOTION":15.08842187,"ECCENTRICITY":0.00014251,"INCLINATION":53.2174,"RA_OF_ASC_NODE":322.9141,"ARG_OF_PERICENTER":88.6552,"MEAN_ANOMALY":271.4604,"EPHEMERIS_TYPE":0,"CLASSIFICATION_TYPE":"U","NORAD_CAT_ID":53895,"ELEMENT_SET_NO":999,"REV_AT_EPOCH":19172,"BSTAR":9.9434378e-5,"MEAN_MOTION_DOT":1.295e-5,"MEAN_MOTION_DDOT":0},{"OBJECT_NAME":"STARLINK-5895","OBJECT_ID":"2023-037BC","EPOCH":"2026-03-09T22:23:45.381696","MEAN_MOTION":15.07243555,"ECCENTRICITY":0.00049855,"INCLINATION":69.9972,"RA_OF_ASC_NODE":260.028,"ARG_OF_PERICENTER":264.4993,"MEAN_ANOMALY":95.5602,"EPHEMERIS_TYPE":0,"CLASSIFICATION_TYPE":"U","NORAD_CAT_ID":55964,"ELEMENT_SET_NO":999,"REV_AT_EPOCH":16460,"BSTAR":0.00072849946,"MEAN_MOTION_DOT":0.00010921,"MEAN_MOTION_DDOT":0}]
